[{"OBJECT_NAME":"STARLINK-32939","OBJECT_ID":"2025-043T","EPOCH":"2025-11-29T01:16:59.248992","MEAN_MOTION":15.27599138,"ECCENTRICITY":9.78e-5,"INCLINATION":42.9994,"RA_OF_ASC_NODE":224.3726,"ARG_OF_PERICENTER":255.186,"MEAN_ANOMALY":104.8883,"EPHEMERIS_TYPE":0,"CLASSIFICATION_TYPE":"U","NORAD_CAT_ID":63149,"ELEMENT_SET_NO":999,"REV_AT_EPOCH":4197,"BSTAR":0.0010055,"MEAN_MOTION_DOT":0.00027525,"MEAN_MOTION_DDOT":0},{"OBJECT_NAME":"STARLINK-32919","OBJECT_ID":"2025-043U","EPOCH":"2025-11-29T03:11:29.747616","MEAN_MOTION":15.2759792,"ECCENTRICITY":0.0001097,"INCLINATION":42.9981,"RA_OF_ASC_NODE":224.1085,"ARG_OF_PERICENTER":263.6027,"MEAN_ANOMALY":96.4699,"EPHEMERIS_TYPE":0,"CLASSIFICATION_TYPE":"U","NORAD_CAT_ID":63150,"ELEMENT_SET_NO":999,"REV_AT_EPOCH":4198,"BSTAR":0.0011577,"MEAN_MOTION_DOT":0.00031751,"MEAN_MOTION_DDOT":0},{"OBJECT_NAME":"STARLINK-32876","OBJECT_ID":"2025-043V","EPOCH":"2025-11-29T00:49:12.855648","MEAN_MOTION":15.2761807,"ECCENTRICITY":0.0001725,"INCLINATION":43.0012,"RA_OF_ASC_NODE":224.2272,"ARG_OF_PERICENTER":270.7218,"MEAN_ANOMALY":89.3436,"EPHEMERIS_TYPE":0,"CLASSIFICATION_TYPE":"U","NORAD_CAT_ID":63151,"ELEMENT_SET_NO":999,"REV_AT_EPOCH":4197,"BSTAR":0.00093896,"MEAN_MOTION_DOT":0.00025696,"MEAN_MOTION_DDOT":0},{"OBJECT_NAME":"STARLINK-32915","OBJECT_ID":"2025-043W","EPOCH":"2025-11-29T03:06:23.292000","MEAN_MOTION":15.27613559,"ECCENTRICITY":0.0001677,"INCLINATION":43.0016,"RA_OF_ASC_NODE":230.9655,"ARG_OF_PERICENTER":258.2823,"MEAN_ANOMALY":101.7841,"EPHEMERIS_TYPE":0,"CLASSIFICATION_TYPE":"U","NORAD_CAT_ID":63152,"ELEMENT_SET_NO":999,"REV_AT_EPOCH":4190,"BSTAR":0.0015635,"MEAN_MOTION_DOT":0.00043058,"MEAN_MOTION_DDOT":0},{"OBJECT_NAME":"STARLINK-11602 [DTC]","OBJECT_ID":"2025-048A","EPOCH":"2025-11-29T01:48:45.321984","MEAN_MOTION":15.70877446,"ECCENTRICITY":0.0001823,"INCLINATION":42.9984,"RA_OF_ASC_NODE":206.6838,"ARG_OF_PERICENTER":151.7717,"MEAN_ANOMALY":208.3249,"EPHEMERIS_TYPE":0,"CLASSIFICATION_TYPE":"U","NORAD_CAT_ID":63183,"ELEMENT_SET_NO":999,"REV_AT_EPOCH":4231,"BSTAR":0.0014302,"MEAN_MOTION_DOT":0.00187557,"MEAN_MOTION_DDOT":0},{"OBJECT_NAME":"STARLINK-11617 [DTC]","OBJECT_ID":"2025-048B","EPOCH":"2025-11-28T22:37:59.080224","MEAN_MOTION":15.70890688,"ECCENTRICITY":0.000161,"INCLINATION":42.9986,"RA_OF_ASC_NODE":207.4065,"ARG_OF_PERICENTER":250.5651,"MEAN_ANOMALY":109.5042,"EPHEMERIS_TYPE":0,"CLASSIFICATION_TYPE":"U","NORAD_CAT_ID":63184,"ELEMENT_SET_NO":999,"REV_AT_EPOCH":4267,"BSTAR":0.0014702,"MEAN_MOTION_DOT":0.0019305,"MEAN_MOTION_DDOT":0},{"OBJECT_NAME":"STARLINK-11618 [DTC]","OBJECT_ID":"2025-048C","EPOCH":"2025-11-29T00:55:14.196864","MEAN_MOTION":15.70999807,"ECCENTRICITY":0.0001664,"INCLINATION":42.9987,"RA_OF_ASC_NODE":206.3825,"ARG_OF_PERICENTER":277.0363,"MEAN_ANOMALY":83.0315,"EPHEMERIS_TYPE":0,"CLASSIFICATION_TYPE":"U","NORAD_CAT_ID":63185,"ELEMENT_SET_NO":999,"REV_AT_EPOCH":4268,"BSTAR":0.0015099,"MEAN_MOTION_DOT":0.00199339,"MEAN_MOTION_DDOT":0},{"OBJECT_NAME":"STARLINK-11646 [DTC]","OBJECT_ID":"2025-048D","EPOCH":"2025-11-29T00:39:56.861280","MEAN_MOTION":15.70881184,"ECCENTRICITY":0.0001366,"INCLINATION":42.9997,"RA_OF_ASC_NODE":206.297,"ARG_OF_PERICENTER":339.8554,"MEAN_ANOMALY":20.2259,"EPHEMERIS_TYPE":0,"CLASSIFICATION_TYPE":"U","NORAD_CAT_ID":63186,"ELEMENT_SET_NO":999,"REV_AT_EPOCH":4269,"BSTAR":0.0014863,"MEAN_MOTION_DOT":0.00195151,"MEAN_MOTION_DDOT":0},{"OBJECT_NAME":"STARLINK-11622 [DTC]","OBJECT_ID":"2025-048E","EPOCH":"2025-11-29T00:24:49.845312","MEAN_MOTION":15.70905497,"ECCENTRICITY":0.0002342,"INCLINATION":43.0005,"RA_OF_ASC_NODE":207.1094,"ARG_OF_PERICENTER":268.9689,"MEAN_ANOMALY":91.091,"EPHEMERIS_TYPE":0,"CLASSIFICATION_TYPE":"U","NORAD_CAT_ID":63187,"ELEMENT_SET_NO":999,"REV_AT_EPOCH":4268,"BSTAR":0.0016088,"MEAN_MOTION_DOT":0.00211925,"MEAN_MOTION_DDOT":0},{"OBJECT_NAME":"STARLINK-11642 [DTC]","OBJECT_ID":"2025-048F","EPOCH":"2025-11-28T22:22:41.526048","MEAN_MOTION":15.70954965,"ECCENTRICITY":0.00013,"INCLINATION":42.9993,"RA_OF_ASC_NODE":207.3191,"ARG_OF_PERICENTER":219.3645,"MEAN_ANOMALY":140.7128,"EPHEMERIS_TYPE":0,"CLASSIFICATION_TYPE":"U","NORAD_CAT_ID":63188,"ELEMENT_SET_NO":999,"REV_AT_EPOCH":4267,"BSTAR":0.0016967,"MEAN_MOTION_DOT":0.00224314,"MEAN_MOTION_DDOT":0},{"OBJECT_NAME":"STARLINK-11639 [DTC]","OBJECT_ID":"2025-048G","EPOCH":"2025-11-28T23:38:57.645024","MEAN_MOTION":15.70892665,"ECCENTRICITY":0.0002073,"INCLINATION":43.0004,"RA_OF_ASC_NODE":206.8496,"ARG_OF_PERICENTER":266.9328,"MEAN_ANOMALY":93.1303,"EPHEMERIS_TYPE":0,"CLASSIFICATION_TYPE":"U","NORAD_CAT_ID":63189,"ELEMENT_SET_NO":999,"REV_AT_EPOCH":4268,"BSTAR":0.0016169,"MEAN_MOTION_DOT":0.00212895,"MEAN_MOTION_DDOT":0},{"OBJECT_NAME":"STARLINK-11637 [DTC]","OBJECT_ID":"2025-048H","EPOCH":"2025-11-29T00:26:08.583360","MEAN_MOTION":15.70909559,"ECCENTRICITY":0.0002636,"INCLINATION":43.0002,"RA_OF_ASC_NODE":207.1167,"ARG_OF_PERICENTER":271.847,"MEAN_ANOMALY":88.2096,"EPHEMERIS_TYPE":0,"CLASSIFICATION_TYPE":"U","NORAD_CAT_ID":63190,"ELEMENT_SET_NO":999,"REV_AT_EPOCH":4268,"BSTAR":0.0016337,"MEAN_MOTION_DOT":0.0021534,"MEAN_MOTION_DDOT":0},{"OBJECT_NAME":"STARLINK-11647 [DTC]","OBJECT_ID":"2025-048J","EPOCH":"2025-11-28T00:37:55.297344","MEAN_MOTION":15.70850381,"ECCENTRICITY":0.00015253,"INCLINATION":42.9999,"RA_OF_ASC_NODE":212.5535,"ARG_OF_PERICENTER":268.761,"MEAN_ANOMALY":91.3083,"EPHEMERIS_TYPE":0,"CLASSIFICATION_TYPE":"U","NORAD_CAT_ID":63191,"ELEMENT_SET_NO":999,"REV_AT_EPOCH":4253,"BSTAR":0.001963482,"MEAN_MOTION_DOT":0.00259635,"MEAN_MOTION_DDOT":0},{"OBJECT_NAME":"STARLINK-11643 [DTC]","OBJECT_ID":"2025-048K","EPOCH":"2025-11-29T01:18:09.753120","MEAN_MOTION":15.70898749,"ECCENTRICITY":0.0002394,"INCLINATION":43.0005,"RA_OF_ASC_NODE":206.5084,"ARG_OF_PERICENTER":266.7074,"MEAN_ANOMALY":93.352,"EPHEMERIS_TYPE":0,"CLASSIFICATION_TYPE":"U","NORAD_CAT_ID":63192,"ELEMENT_SET_NO":999,"REV_AT_EPOCH":4269,"BSTAR":0.0014088,"MEAN_MOTION_DOT":0.00184865,"MEAN_MOTION_DDOT":0},{"OBJECT_NAME":"STARLINK-11635 [DTC]","OBJECT_ID":"2025-048L","EPOCH":"2025-11-29T00:47:33.728064","MEAN_MOTION":15.71018102,"ECCENTRICITY":0.0006424,"INCLINATION":43.0005,"RA_OF_ASC_NODE":206.3373,"ARG_OF_PERICENTER":250.6413,"MEAN_ANOMALY":109.376,"EPHEMERIS_TYPE":0,"CLASSIFICATION_TYPE":"U","NORAD_CAT_ID":63193,"ELEMENT_SET_NO":999,"REV_AT_EPOCH":4269,"BSTAR":0.0015431,"MEAN_MOTION_DOT":0.00204185,"MEAN_MOTION_DDOT":0},{"OBJECT_NAME":"STARLINK-11636 [DTC]","OBJECT_ID":"2025-048M","EPOCH":"2025-11-28T22:30:20.236608","MEAN_MOTION":15.70951346,"ECCENTRICITY":0.0001118,"INCLINATION":42.9988,"RA_OF_ASC_NODE":207.3598,"ARG_OF_PERICENTER":212.3071,"MEAN_ANOMALY":147.7728,"EPHEMERIS_TYPE":0,"CLASSIFICATION_TYPE":"U","NORAD_CAT_ID":63194,"ELEMENT_SET_NO":999,"REV_AT_EPOCH":4267,"BSTAR":0.0016132,"MEAN_MOTION_DOT":0.00212935,"MEAN_MOTION_DDOT":0}]
