STARLINK-32939          
1 63149U 25043T   25333.05346353  .00027525  00000+0  10055-2 0  9995
2 63149  42.9994 224.3726 0000978 255.1860 104.8883 15.27599138 41972
STARLINK-32919          
1 63150U 25043U   25333.13298319  .00031751  00000+0  11577-2 0  9990
2 63150  42.9981 224.1085 0001097 263.6027  96.4699 15.27597920 41987
STARLINK-32876          
1 63151U 25043V   25333.03417657  .00025696  00000+0  93896-3 0  9994
2 63151  43.0012 224.2272 0001725 270.7218  89.3436 15.27618070 41972
STARLINK-32915          
1 63152U 25043W   25333.12943625  .00043058  00000+0  15635-2 0  9990
2 63152  43.0016 230.9655 0001677 258.2823 101.7841 15.27613559 41904
STARLINK-11602 [DTC]    
1 63183U 25048A   25333.07552456  .00187557  00000+0  14302-2 0  9994
2 63183  42.9984 206.6838 0001823 151.7717 208.3249 15.70877446 42312
STARLINK-11617 [DTC]    
1 63184U 25048B   25332.94304491  .00193050  00000+0  14702-2 0  9993
2 63184  42.9986 207.4065 0001610 250.5651 109.5042 15.70890688 42670
STARLINK-11618 [DTC]    
1 63185U 25048C   25333.03835876  .00199339  00000+0  15099-2 0  9997
2 63185  42.9987 206.3825 0001664 277.0363  83.0315 15.70999807 42680
STARLINK-11646 [DTC]    
1 63186U 25048D   25333.02774145  .00195151  00000+0  14863-2 0  9994
2 63186  42.9997 206.2970 0001366 339.8554  20.2259 15.70881184 42699
STARLINK-11622 [DTC]    
1 63187U 25048E   25333.01724358  .00211925  00000+0  16088-2 0  9994
2 63187  43.0005 207.1094 0002342 268.9689  91.0910 15.70905497 42688
STARLINK-11642 [DTC]    
1 63188U 25048F   25332.93242507  .00224314  00000+0  16967-2 0  9998
2 63188  42.9993 207.3191 0001300 219.3645 140.7128 15.70954965 42674
STARLINK-11639 [DTC]    
1 63189U 25048G   25332.98538941  .00212895  00000+0  16169-2 0  9999
2 63189  43.0004 206.8496 0002073 266.9328  93.1303 15.70892665 42681
STARLINK-11637 [DTC]    
1 63190U 25048H   25333.01815490  .00215340  00000+0  16337-2 0  9998
2 63190  43.0002 207.1167 0002636 271.8470  88.2096 15.70909559 42683
STARLINK-11647 [DTC]    
1 63191U 25048J   25332.02633446  .00259635  00000+0  19635-2 0  9997
2 63191  42.9999 212.5535 0001525 268.7610  91.3083 15.70850381 42536
STARLINK-11643 [DTC]    
1 63192U 25048K   25333.05427955  .00184865  00000+0  14088-2 0  9997
2 63192  43.0005 206.5084 0002394 266.7074  93.3520 15.70898749 42691
STARLINK-11635 [DTC]    
1 63193U 25048L   25333.03302926  .00204185  00000+0  15431-2 0  9997
2 63193  43.0005 206.3373 0006424 250.6413 109.3760 15.71018102 42690
STARLINK-11636 [DTC]    
1 63194U 25048M   25332.93773422  .00212935  00000+0  16132-2 0  9990
2 63194  42.9988 207.3598 0001118 212.3071 147.7728 15.70951346 42672
